OBJECT_NAME,OBJECT_ID,EPOCH,MEAN_MOTION,ECCENTRICITY,INCLINATION,RA_OF_ASC_NODE,ARG_OF_PERICENTER,MEAN_ANOMALY,EPHEMERIS_TYPE,CLASSIFICATION_TYPE,NORAD_CAT_ID,ELEMENT_SET_NO,REV_AT_EPOCH,BSTAR,MEAN_MOTION_DOT,MEAN_MOTION_DDOT
LEMUR-1,2014-033AL,2026-06-08T03:09:20.088000,14.85211363,.0049726,97.7869,309.1391,107.5159,253.1499,0,U,40044,999,64412,.30186E-3,.2591E-4,0
LEMUR-2-GREENBERG,2017-042N,2026-06-08T01:38:48.134688,15.31050242,.0009405,97.3822,339.7378,45.2806,314.9199,0,U,42837,999,48699,.60391E-3,.18086E-3,0
LEMUR-2-ANDIS,2017-042P,2026-06-07T11:11:40.747776,15.34458844,.0009002,97.3683,339.2899,46.6402,313.5589,0,U,42838,999,48696,.66499E-3,.22181E-3,0
LEMUR-2-MONSON,2017-042Q,2026-06-08T01:23:06.887040,15.27774627,.0007058,97.4082,339.7130,37.2909,322.8819,0,U,42839,999,48677,.60788E-3,.16448E-3,0
LEMUR-2-FURIAUS,2017-042R,2026-06-07T11:12:54.347616,15.29931512,.0008535,97.3773,337.1173,98.8266,261.3941,0,U,42840,999,48672,.6248E-3,.18073E-3,0
LEMUR-2-PETERG,2017-042S,2026-06-07T23:11:50.188704,15.33529270,.0003954,97.3996,343.9851,31.1723,328.9754,0,U,42841,999,48702,.74638E-3,.24165E-3,0
LEMUR-2-DEMBITZ,2017-042T,2026-06-08T00:15:27.553248,15.30020981,.0007492,97.3827,340.6728,58.2888,301.9082,0,U,42842,999,48694,.59059E-3,.1712E-3,0
LEMUR-2-ZACHARY,2017-042W,2026-06-08T00:31:40.217664,15.49476173,.0003536,97.3614,350.4691,65.1620,294.9998,0,U,42845,999,48778,.83982E-3,.46326E-3,0
LEMUR-2-AMANDA-SVANTE,2021-034B,2026-06-08T03:50:35.746080,15.33756552,.0001253,97.5755,237.2119,245.9412,114.1699,0,U,48269,999,27967,.82342E-3,.26862E-3,0
LEMUR-2-SPECIAL-K,2021-034F,2026-06-07T23:53:23.556192,15.61934998,.0003202,97.5651,245.2071,237.4247,122.6701,0,U,48273,999,28025,.16366E-2,.144558E-2,0
LEMUR-2-EMBRIONOVIS,2023-084AQ,2026-06-08T03:43:02.610912,15.37322941,.0008361,97.6281,303.0102,355.3556,4.7609,0,U,56970,999,16629,.32081E-3,.11663E-3,0
LEMUR-2-DEVERILL-M-T,2023-100F,2026-06-08T01:41:39.382080,15.39306750,.0007184,99.4478,195.1998,78.2426,281.9619,0,U,57391,999,15984,.77515E-3,.30234E-3,0
LEMUR-2-BASS,2023-174D,2026-06-08T03:08:20.719968,15.42798214,.0007039,97.3845,243.7191,192.0111,168.0970,0,U,58259,999,14396,.43809E-3,.19128E-3,0
LEMUR-2-JK0903EM1407,2023-174CJ,2026-06-07T23:38:23.754624,15.51209951,.0005937,97.3909,249.2016,145.2761,214.8880,0,U,58336,999,14430,.50068E-3,.29272E-3,0
LEMUR-2-MJR092620,2023-174CN,2026-06-07T18:22:38.937216,15.44530489,.0007021,97.3968,248.6242,145.6151,214.5553,0,U,58340,999,14419,.4222E-3,.19541E-3,0
LEMUR-2-NIMBUS2000,2024-022A,2026-06-08T02:39:57.057984,15.39708686,.0009975,97.4119,9.0005,143.9326,216.2595,0,U,58899,999,13087,.47734E-3,.18833E-3,0
LEMUR-2-VALHALLA,2024-022B,2026-06-08T02:31:49.261728,15.39399554,.0010514,97.4118,8.9902,140.2164,219.9854,0,U,58900,999,13087,.44203E-3,.17258E-3,0
LEMUR-2-OBA-NI-JESU,2024-022D,2026-06-08T03:17:09.881088,16.09129280,.0004544,97.3720,23.6731,198.6577,161.4540,0,U,58902,999,13187,.1274E-2,.1105389E-1,.73752E-3
LEMUR-2-CAEL,2024-022E,2026-06-08T02:56:56.119200,15.40681050,.0009122,97.4103,9.9277,124.1453,236.0659,0,U,58903,999,13094,.47063E-3,.19168E-3,0
LEMUR-2-JOHNNYTRUONG,2024-043BA,2026-06-07T23:28:26.703840,15.59785174,.0004494,97.5375,310.1164,204.8165,155.2876,0,U,59146,999,12660,.47509E-3,.38082E-3,0
LEMUR-2-TOMATOKECHUP,2024-149D,2026-06-08T02:48:09.075744,15.35843939,.0000542,97.3793,241.1419,201.5567,158.5654,0,U,60471,999,10077,.3471E-3,.12031E-3,0
LEMUR-2-STELLA,2024-149BT,2026-06-08T03:30:04.012992,15.11614489,.0001959,97.6734,241.5628,98.6283,261.5169,0,U,60533,999,9913,.55081E-3,.9296E-4,0
LEMUR-2-MARHISYAM,2024-149BW,2026-06-08T02:57:02.506752,15.11075114,.0003013,97.6873,241.9798,135.3374,224.8099,0,U,60536,999,9911,.74904E-3,.12483E-3,0
LEMUR-2-AHMED-ASRAR,2024-149DN,2026-06-08T00:48:07.730784,15.12509509,.0002646,97.6999,243.9474,64.4928,295.6576,0,U,60576,999,9918,.75032E-3,.13014E-3,0
LEMUR-2-LLOYD,2024-149DP,2026-06-08T03:46:51.479328,15.09066127,.0004461,97.6745,240.2832,161.8028,198.3361,0,U,60577,999,9903,.5507E-3,.8664E-4,0
LEMUR-2-SQUIRRELCOMM,2024-149DQ,2026-06-08T03:49:35.609088,15.07051800,.0006943,97.6712,240.1001,86.5698,273.6324,0,U,60578,999,9904,.374E-3,.5548E-4,0
LEMUR-2-SIERRINI,2024-149DR,2026-06-08T03:28:10.753824,15.10756430,.0005076,97.6837,241.6986,190.8645,169.2476,0,U,60579,999,9909,.5402E-3,.8903E-4,0
LEMUR-2-WILSON,2025-009CP,2026-06-08T03:03:01.644768,14.95129935,.0004615,97.7025,237.7511,76.4553,283.7181,0,U,62694,999,7600,.20635E-3,.2207E-4,0
LEMUR-2-STAR-FOX,2025-009CR,2026-06-08T00:50:38.206752,15.02368610,.0002862,97.6942,240.7107,136.2432,223.9020,0,U,62696,999,7618,.71938E-3,.9466E-4,0
LEMUR-2-ARIANNA,2025-009CU,2026-06-07T23:12:10.078848,15.02347989,.0003186,97.6881,240.4245,144.1020,216.0420,0,U,62699,999,7617,.70468E-3,.9267E-4,0
