LEMUR-1                 
1 40044U 14033AL  26159.13148250  .00002591  00000+0  30186-3 0  9997
2 40044  97.7869 309.1391 0049726 107.5159 253.1499 14.85211363644126
LEMUR-2-GREENBERG       
1 42837U 17042N   26159.06861267  .00018086  00000+0  60391-3 0  9991
2 42837  97.3822 339.7378 0009405  45.2806 314.9199 15.31050242486995
LEMUR-2-ANDIS           
1 42838U 17042P   26158.46644384  .00022181  00000+0  66499-3 0  9990
2 42838  97.3683 339.2899 0009002  46.6402 313.5589 15.34458844486962
LEMUR-2-MONSON          
1 42839U 17042Q   26159.05771860  .00016448  00000+0  60788-3 0  9991
2 42839  97.4082 339.7130 0007058  37.2909 322.8819 15.27774627486777
LEMUR-2-FURIAUS         
1 42840U 17042R   26158.46729569  .00018073  00000+0  62480-3 0  9993
2 42840  97.3773 337.1173 0008535  98.8266 261.3941 15.29931512486722
LEMUR-2-PETERG          
1 42841U 17042S   26158.96655311  .00024165  00000+0  74638-3 0  9999
2 42841  97.3996 343.9851 0003954  31.1723 328.9754 15.33529270487021
LEMUR-2-DEMBITZ         
1 42842U 17042T   26159.01073557  .00017120  00000+0  59059-3 0  9996
2 42842  97.3827 340.6728 0007492  58.2888 301.9082 15.30020981486942
LEMUR-2-ZACHARY         
1 42845U 17042W   26159.02199326  .00046326  00000+0  83982-3 0  9995
2 42845  97.3614 350.4691 0003536  65.1620 294.9998 15.49476173487781
LEMUR-2-AMANDA-SVANTE   
1 48269U 21034B   26159.16013595  .00026862  00000+0  82342-3 0  9997
2 48269  97.5755 237.2119 0001253 245.9412 114.1699 15.33756552279676
LEMUR-2-SPECIAL-K       
1 48273U 21034F   26158.99541153  .00144558  00000+0  16366-2 0  9993
2 48273  97.5651 245.2071 0003202 237.4247 122.6701 15.61934998280257
LEMUR-2-EMBRIONOVIS     
1 56970U 23084AQ  26159.15489133  .00011663  00000+0  32081-3 0  9994
2 56970  97.6281 303.0102 0008361 355.3556   4.7609 15.37322941166298
LEMUR-2-DEVERILL-M-T    
1 57391U 23100F   26159.07059470  .00030234  00000+0  77515-3 0  9995
2 57391  99.4478 195.1998 0007184  78.2426 281.9619 15.39306750159841
LEMUR-2-BASS            
1 58259U 23174D   26159.13079537  .00019128  00000+0  43809-3 0  9991
2 58259  97.3845 243.7191 0007039 192.0111 168.0970 15.42798214143965
LEMUR-2-JK0903EM1407    
1 58336U 23174CJ  26158.98499716  .00029272  00000+0  50068-3 0  9990
2 58336  97.3909 249.2016 0005937 145.2761 214.8880 15.51209951144309
LEMUR-2-MJR092620       
1 58340U 23174CN  26158.76572844  .00019541  00000+0  42220-3 0  9994
2 58340  97.3968 248.6242 0007021 145.6151 214.5553 15.44530489144192
LEMUR-2-NIMBUS2000      
1 58899U 24022A   26159.11107706  .00018833  00000+0  47734-3 0  9995
2 58899  97.4119   9.0005 0009975 143.9326 216.2595 15.39708686130876
LEMUR-2-VALHALLA        
1 58900U 24022B   26159.10543127  .00017258  00000+0  44203-3 0  9996
2 58900  97.4118   8.9902 0010514 140.2164 219.9854 15.39399554130871
LEMUR-2-OBA-NI-JESU     
1 58902U 24022D   26159.13691992  .01105389  73752-3  12740-2 0  9997
2 58902  97.3720  23.6731 0004544 198.6577 161.4540 16.09129280131875
LEMUR-2-CAEL            
1 58903U 24022E   26159.12287175  .00019168  00000+0  47063-3 0  9998
2 58903  97.4103   9.9277 0009122 124.1453 236.0659 15.40681050130947
LEMUR-2-JOHNNYTRUONG    
1 59146U 24043BA  26158.97808685  .00038082  00000+0  47509-3 0  9999
2 59146  97.5375 310.1164 0004494 204.8165 155.2876 15.59785174126607
LEMUR-2-TOMATOKECHUP    
1 60471U 24149D   26159.11677171  .00012031  00000+0  34710-3 0  9996
2 60471  97.3793 241.1419 0000542 201.5567 158.5654 15.35843939100776
LEMUR-2-STELLA          
1 60533U 24149BT  26159.14587978  .00009296  00000+0  55081-3 0  9996
2 60533  97.6734 241.5628 0001959  98.6283 261.5169 15.11614489 99135
LEMUR-2-MARHISYAM       
1 60536U 24149BW  26159.12294568  .00012483  00000+0  74904-3 0  9994
2 60536  97.6873 241.9798 0003013 135.3374 224.8099 15.11075114 99115
LEMUR-2-AHMED-ASRAR     
1 60576U 24149DN  26159.03342281  .00013014  00000+0  75032-3 0  9998
2 60576  97.6999 243.9474 0002646  64.4928 295.6576 15.12509509 99183
LEMUR-2-LLOYD           
1 60577U 24149DP  26159.15754027  .00008664  00000+0  55070-3 0  9992
2 60577  97.6745 240.2832 0004461 161.8028 198.3361 15.09066127 99036
LEMUR-2-SQUIRRELCOMM    
1 60578U 24149DQ  26159.15943992  .00005548  00000+0  37400-3 0  9999
2 60578  97.6712 240.1001 0006943  86.5698 273.6324 15.07051800 99048
LEMUR-2-SIERRINI        
1 60579U 24149DR  26159.14456891  .00008903  00000+0  54020-3 0  9991
2 60579  97.6837 241.6986 0005076 190.8645 169.2476 15.10756430 99090
LEMUR-2-WILSON          
1 62694U 25009CP  26159.12710237  .00002207  00000+0  20635-3 0  9998
2 62694  97.7025 237.7511 0004615  76.4553 283.7181 14.95129935 76002
LEMUR-2-STAR-FOX        
1 62696U 25009CR  26159.03516443  .00009466  00000+0  71938-3 0  9999
2 62696  97.6942 240.7107 0002862 136.2432 223.9020 15.02368610 76180
LEMUR-2-ARIANNA         
1 62699U 25009CU  26158.96678332  .00009267  00000+0  70468-3 0  9995
2 62699  97.6881 240.4245 0003186 144.1020 216.0420 15.02347989 76178
